{
  "type": "FeatureCollection",
  "features": [
    {
      "type": "Feature",
      "properties": {
        "norad_id": 29869,
        "name": "FENGYUN 1C DEB",
        "group": "fengyun-1c-debris",
        "lat": -41.21380054245562,
        "lon": -76.00652249658727,
        "alt_km": 739.3398599448192,
        "timestamp": "2025-12-11T20:41:15.352877+00:00",
        "meta_object_name": "FENGYUN 1C DEB",
        "meta_object_id": "1999-025FP",
        "meta_epoch": "2025-12-11T14:46:03.152928",
        "meta_mean_motion": 14.36880177,
        "meta_eccentricity": 0.00877341,
        "meta_inclination": 98.8727,
        "meta_ra_of_asc_node": 275.8756,
        "meta_arg_of_pericenter": 14.3671,
        "meta_mean_anomaly": 109.4914,
        "meta_ephemeris_type": 0,
        "meta_classification_type": "U",
        "meta_norad_cat_id": 29869,
        "meta_element_set_no": 999,
        "meta_rev_at_epoch": 98804,
        "meta_bstar": 0.00074595093,
        "meta_mean_motion_dot": 2.258e-05,
        "meta_mean_motion_ddot": 0,
        "tle_line1": "1 29869U 99025FP  25345.61531427  .00002258  00000+0  74595-3 0  9996",
        "tle_line2": "2 29869  98.8727 275.8756 0087734  14.3671 109.4914 14.36880177988040"
      },
      "geometry": {
        "type": "Point",
        "coordinates": [
          -76.00652249658727,
          -41.21380054245562
        ]
      }
    },
    {
      "type": "Feature",
      "properties": {
        "norad_id": 29870,
        "name": "FENGYUN 1C DEB",
        "group": "fengyun-1c-debris",
        "lat": 13.561027044936166,
        "lon": -45.251246069553595,
        "alt_km": 882.0783375697483,
        "timestamp": "2025-12-11T20:41:15.352887+00:00",
        "meta_object_name": "FENGYUN 1C DEB",
        "meta_object_id": "1999-025FQ",
        "meta_epoch": "2025-12-11T11:07:22.384128",
        "meta_mean_motion": 14.28979961,
        "meta_eccentricity": 0.01197864,
        "meta_inclination": 98.4599,
        "meta_ra_of_asc_node": 316.4193,
        "meta_arg_of_pericenter": 196.1751,
        "meta_mean_anomaly": 288.627,
        "meta_ephemeris_type": 0,
        "meta_classification_type": "U",
        "meta_norad_cat_id": 29870,
        "meta_element_set_no": 999,
        "meta_rev_at_epoch": 98575,
        "meta_bstar": 9.1949699e-05,
        "meta_mean_motion_dot": 2.08e-06,
        "meta_mean_motion_ddot": 0,
        "tle_line1": "1 29870U 99025FQ  25345.46345352  .00000208  00000+0  91950-4 0  9999",
        "tle_line2": "2 29870  98.4599 316.4193 0119786 196.1751 288.6270 14.28979961985754"
      },
      "geometry": {
        "type": "Point",
        "coordinates": [
          -45.251246069553595,
          13.561027044936166
        ]
      }
    },
    {
      "type": "Feature",
      "properties": {
        "norad_id": 29871,
        "name": "FENGYUN 1C DEB",
        "group": "fengyun-1c-debris",
        "lat": -75.69172412842657,
        "lon": -22.776443148154687,
        "alt_km": 798.4163400272391,
        "timestamp": "2025-12-11T20:41:15.352897+00:00",
        "meta_object_name": "FENGYUN 1C DEB",
        "meta_object_id": "1999-025FR",
        "meta_epoch": "2025-12-11T09:56:30.695424",
        "meta_mean_motion": 14.42627313,
        "meta_eccentricity": 0.00586414,
        "meta_inclination": 98.9728,
        "meta_ra_of_asc_node": 298.474,
        "meta_arg_of_pericenter": 111.3421,
        "meta_mean_anomaly": 5.7761,
        "meta_ephemeris_type": 0,
        "meta_classification_type": "U",
        "meta_norad_cat_id": 29871,
        "meta_element_set_no": 999,
        "meta_rev_at_epoch": 98682,
        "meta_bstar": 0.00158672,
        "meta_mean_motion_dot": 5.337e-05,
        "meta_mean_motion_ddot": 0,
        "tle_line1": "1 29871U 99025FR  25345.41424416  .00005337  00000+0  15867-2 0  9993",
        "tle_line2": "2 29871  98.9728 298.4740 0058641 111.3421   5.7761 14.42627313986825"
      },
      "geometry": {
        "type": "Point",
        "coordinates": [
          -22.776443148154687,
          -75.69172412842657
        ]
      }
    },
    {
      "type": "Feature",
      "properties": {
        "norad_id": 29872,
        "name": "FENGYUN 1C DEB",
        "group": "fengyun-1c-debris",
        "lat": 68.2472480427013,
        "lon": -156.5597899854257,
        "alt_km": 905.4362208778739,
        "timestamp": "2025-12-11T20:41:15.352907+00:00",
        "meta_object_name": "FENGYUN 1C DEB",
        "meta_object_id": "1999-025FS",
        "meta_epoch": "2025-12-11T11:49:50.174976",
        "meta_mean_motion": 14.38945392,
        "meta_eccentricity": 0.02353437,
        "meta_inclination": 98.3462,
        "meta_ra_of_asc_node": 1.4938,
        "meta_arg_of_pericenter": 317.3515,
        "meta_mean_anomaly": 40.9609,
        "meta_ephemeris_type": 0,
        "meta_classification_type": "U",
        "meta_norad_cat_id": 29872,
        "meta_element_set_no": 999,
        "meta_rev_at_epoch": 98574,
        "meta_bstar": 0.0010614047,
        "meta_mean_motion_dot": 4.474e-05,
        "meta_mean_motion_ddot": 0,
        "tle_line1": "1 29872U 99025FS  25345.49294184  .00004474  00000+0  10614-2 0  9995",
        "tle_line2": "2 29872  98.3462   1.4938 0235343 317.3515  40.9609 14.38945392985741"
      },
      "geometry": {
        "type": "Point",
        "coordinates": [
          -156.5597899854257,
          68.2472480427013
        ]
      }
    },
    {
      "type": "Feature",
      "properties": {
        "norad_id": 29873,
        "name": "FENGYUN 1C DEB",
        "group": "fengyun-1c-debris",
        "lat": -42.321924172609215,
        "lon": -145.37226185848505,
        "alt_km": 935.3837659077835,
        "timestamp": "2025-12-11T20:41:15.352917+00:00",
        "meta_object_name": "FENGYUN 1C DEB",
        "meta_object_id": "1999-025FT",
        "meta_epoch": "2025-12-11T04:19:49.789632",
        "meta_mean_motion": 13.98145782,
        "meta_eccentricity": 0.00924983,
        "meta_inclination": 99.4421,
        "meta_ra_of_asc_node": 205.2109,
        "meta_arg_of_pericenter": 203.2544,
        "meta_mean_anomaly": 284.2432,
        "meta_ephemeris_type": 0,
        "meta_classification_type": "U",
        "meta_norad_cat_id": 29873,
        "meta_element_set_no": 999,
        "meta_rev_at_epoch": 96293,
        "meta_bstar": 0.00017410004,
        "meta_mean_motion_dot": 2.1e-06,
        "meta_mean_motion_ddot": 0,
        "tle_line1": "1 29873U 99025FT  25345.18043738  .00000210  00000+0  17410-3 0  9995",
        "tle_line2": "2 29873  99.4421 205.2109 0092498 203.2544 284.2432 13.98145782962933"
      },
      "geometry": {
        "type": "Point",
        "coordinates": [
          -145.37226185848505,
          -42.321924172609215
        ]
      }
    },
    {
      "type": "Feature",
      "properties": {
        "norad_id": 29874,
        "name": "FENGYUN 1C DEB",
        "group": "fengyun-1c-debris",
        "lat": 76.39823284250062,
        "lon": -154.74196372830556,
        "alt_km": 782.4247273681613,
        "timestamp": "2025-12-11T20:41:15.352927+00:00",
        "meta_object_name": "FENGYUN 1C DEB",
        "meta_object_id": "1999-025FU",
        "meta_epoch": "2025-12-11T04:16:59.243808",
        "meta_mean_motion": 14.2876912,
        "meta_eccentricity": 0.01052453,
        "meta_inclination": 98.3786,
        "meta_ra_of_asc_node": 242.1268,
        "meta_arg_of_pericenter": 355.3471,
        "meta_mean_anomaly": 168.9864,
        "meta_ephemeris_type": 0,
        "meta_classification_type": "U",
        "meta_norad_cat_id": 29874,
        "meta_element_set_no": 999,
        "meta_rev_at_epoch": 96825,
        "meta_bstar": 0.0046590714,
        "meta_mean_motion_dot": 0.00012431,
        "meta_mean_motion_ddot": 0,
        "tle_line1": "1 29874U 99025FU  25345.17846347  .00012431  00000+0  46591-2 0  9991",
        "tle_line2": "2 29874  98.3786 242.1268 0105245 355.3471 168.9864 14.28769120968255"
      },
      "geometry": {
        "type": "Point",
        "coordinates": [
          -154.74196372830556,
          76.39823284250062
        ]
      }
    },
    {
      "type": "Feature",
      "properties": {
        "norad_id": 29875,
        "name": "FENGYUN 1C DEB",
        "group": "fengyun-1c-debris",
        "lat": -63.740363652951736,
        "lon": 54.76268780194472,
        "alt_km": 854.8764706382481,
        "timestamp": "2025-12-11T20:41:15.352937+00:00",
        "meta_object_name": "FENGYUN 1C DEB",
        "meta_object_id": "1999-025FV",
        "meta_epoch": "2025-12-11T09:15:40.123584",
        "meta_mean_motion": 14.24878203,
        "meta_eccentricity": 0.00832008,
        "meta_inclination": 98.4054,
        "meta_ra_of_asc_node": 36.8672,
        "meta_arg_of_pericenter": 67.2137,
        "meta_mean_anomaly": 307.7319,
        "meta_ephemeris_type": 0,
        "meta_classification_type": "U",
        "meta_norad_cat_id": 29875,
        "meta_element_set_no": 999,
        "meta_rev_at_epoch": 98303,
        "meta_bstar": 4.3165216e-05,
        "meta_mean_motion_dot": 6.4e-07,
        "meta_mean_motion_ddot": 0,
        "tle_line1": "1 29875U 99025FV  25345.38588106  .00000064  00000+0  43165-4 0  9996",
        "tle_line2": "2 29875  98.4054  36.8672 0083200  67.2137 307.7319 14.24878203983036"
      },
      "geometry": {
        "type": "Point",
        "coordinates": [
          54.76268780194472,
          -63.740363652951736
        ]
      }
    }
  ]
}